[{"OBJECT_NAME":"FREGAT R/B","OBJECT_ID":"2020-031B","EPOCH":"2026-02-28T19:12:26.174016","MEAN_MOTION":2.01377464,"ECCENTRICITY":0.71299339,"INCLINATION":63.5211,"RA_OF_ASC_NODE":77.5908,"ARG_OF_PERICENTER":258.2144,"MEAN_ANOMALY":20.7007,"EPHEMERIS_TYPE":0,"CLASSIFICATION_TYPE":"U","NORAD_CAT_ID":45609,"ELEMENT_SET_NO":999,"REV_AT_EPOCH":4247,"BSTAR":0,"MEAN_MOTION_DOT":7.7e-6,"MEAN_MOTION_DDOT":0},{"OBJECT_NAME":"BEIDOU-3 G3","OBJECT_ID":"2020-040A","EPOCH":"2026-03-02T23:22:36.006240","MEAN_MOTION":1.00276035,"ECCENTRICITY":0.0004228,"INCLINATION":2.1864,"RA_OF_ASC_NODE":67.1119,"ARG_OF_PERICENTER":315.1868,"MEAN_ANOMALY":239.5484,"EPHEMERIS_TYPE":0,"CLASSIFICATION_TYPE":"U","NORAD_CAT_ID":45807,"ELEMENT_SET_NO":999,"REV_AT_EPOCH":2100,"BSTAR":0,"MEAN_MOTION_DOT":-3.69e-6,"MEAN_MOTION_DDOT":0},{"OBJECT_NAME":"APSTAR-6D","OBJECT_ID":"2020-045A","EPOCH":"2026-03-02T21:35:54.073824","MEAN_MOTION":1.0026959,"ECCENTRICITY":0.0002453,"INCLINATION":0.0416,"RA_OF_ASC_NODE":104.181,"ARG_OF_PERICENTER":341.7817,"MEAN_ANOMALY":172.6983,"EPHEMERIS_TYPE":0,"CLASSIFICATION_TYPE":"U","NORAD_CAT_ID":45863,"ELEMENT_SET_NO":999,"REV_AT_EPOCH":2079,"BSTAR":0,"MEAN_MOTION_DOT":-3.34e-6,"MEAN_MOTION_DDOT":0},{"OBJECT_NAME":"KOREASAT 116","OBJECT_ID":"2020-048A","EPOCH":"2026-03-02T23:13:33.014208","MEAN_MOTION":1.00270318,"ECCENTRICITY":0.0001105,"INCLINATION":0.0204,"RA_OF_ASC_NODE":155.5175,"ARG_OF_PERICENTER":185.6351,"MEAN_ANOMALY":284.1969,"EPHEMERIS_TYPE":0,"CLASSIFICATION_TYPE":"U","NORAD_CAT_ID":45920,"ELEMENT_SET_NO":999,"REV_AT_EPOCH":2057,"BSTAR":0,"MEAN_MOTION_DOT":0,"MEAN_MOTION_DDOT":0},{"OBJECT_NAME":"EXPRESS 103","OBJECT_ID":"2020-053A","EPOCH":"2026-03-03T00:50:31.217856","MEAN_MOTION":1.00273535,"ECCENTRICITY":9.04e-5,"INCLINATION":0.0351,"RA_OF_ASC_NODE":290.3437,"ARG_OF_PERICENTER":355.5788,"MEAN_ANOMALY":343.9949,"EPHEMERIS_TYPE":0,"CLASSIFICATION_TYPE":"U","NORAD_CAT_ID":45985,"ELEMENT_SET_NO":999,"REV_AT_EPOCH":2058,"BSTAR":0,"MEAN_MOTION_DOT":-2.97e-6,"MEAN_MOTION_DDOT":0},{"OBJECT_NAME":"EXPRESS 80","OBJECT_ID":"2020-053B","EPOCH":"2026-03-02T07:59:25.083744","MEAN_MOTION":1.00278276,"ECCENTRICITY":0.00022217,"INCLINATION":0.0383,"RA_OF_ASC_NODE":266.3297,"ARG_OF_PERICENTER":21.043,"MEAN_ANOMALY":72.5659,"EPHEMERIS_TYPE":0,"CLASSIFICATION_TYPE":"U","NORAD_CAT_ID":45986,"ELEMENT_SET_NO":999,"REV_AT_EPOCH":2057,"BSTAR":0,"MEAN_MOTION_DOT":-1.54e-6,"MEAN_MOTION_DDOT":0},{"OBJECT_NAME":"BREEZE-M R/B","OBJECT_ID":"2020-053C","EPOCH":"2026-03-03T01:10:44.026752","MEAN_MOTION":1.03580823,"ECCENTRICITY":0.4350453,"INCLINATION":7.2474,"RA_OF_ASC_NODE":80.1405,"ARG_OF_PERICENTER":74.064,"MEAN_ANOMALY":329.0339,"EPHEMERIS_TYPE":0,"CLASSIFICATION_TYPE":"U","NORAD_CAT_ID":45987,"ELEMENT_SET_NO":999,"REV_AT_EPOCH":2114,"BSTAR":0,"MEAN_MOTION_DOT":-2.47e-6,"MEAN_MOTION_DDOT":0},{"OBJECT_NAME":"BSAT-4B","OBJECT_ID":"2020-056A","EPOCH":"2026-03-02T23:46:05.863296","MEAN_MOTION":1.00273318,"ECCENTRICITY":0.000131,"INCLINATION":0.0375,"RA_OF_ASC_NODE":203.5979,"ARG_OF_PERICENTER":239.4094,"MEAN_ANOMALY":184.0959,"EPHEMERIS_TYPE":0,"CLASSIFICATION_TYPE":"U","NORAD_CAT_ID":46112,"ELEMENT_SET_NO":999,"REV_AT_EPOCH":2032,"BSTAR":0,"MEAN_MOTION_DOT":-3.66e-6,"MEAN_MOTION_DDOT":0},{"OBJECT_NAME":"MEV-2","OBJECT_ID":"2020-056B","EPOCH":"2026-03-02T20:57:20.604096","MEAN_MOTION":1.00270496,"ECCENTRICITY":0.0001042,"INCLINATION":0.0151,"RA_OF_ASC_NODE":123.043,"ARG_OF_PERICENTER":253.4183,"MEAN_ANOMALY":97.4995,"EPHEMERIS_TYPE":0,"CLASSIFICATION_TYPE":"U","NORAD_CAT_ID":46113,"ELEMENT_SET_NO":999,"REV_AT_EPOCH":7949,"BSTAR":0,"MEAN_MOTION_DOT":-2.8e-7,"MEAN_MOTION_DDOT":0},{"OBJECT_NAME":"GALAXY 30 (G-30)","OBJECT_ID":"2020-056C","EPOCH":"2026-03-03T03:49:38.807616","MEAN_MOTION":1.00272235,"ECCENTRICITY":0.0002205,"INCLINATION":0.0168,"RA_OF_ASC_NODE":121.9575,"ARG_OF_PERICENTER":218.1627,"MEAN_ANOMALY":113.197,"EPHEMERIS_TYPE":0,"CLASSIFICATION_TYPE":"U","NORAD_CAT_ID":46114,"ELEMENT_SET_NO":999,"REV_AT_EPOCH":2022,"BSTAR":0,"MEAN_MOTION_DOT":2.1e-7,"MEAN_MOTION_DDOT":0},{"OBJECT_NAME":"ATLAS 5 CENTAUR DEB","OBJECT_ID":"2018-079CA","EPOCH":"2026-03-02T01:45:50.391360","MEAN_MOTION":1.79057448,"ECCENTRICITY":0.4683641,"INCLINATION":13.3918,"RA_OF_ASC_NODE":47.9997,"ARG_OF_PERICENTER":284.8624,"MEAN_ANOMALY":29.1851,"EPHEMERIS_TYPE":0,"CLASSIFICATION_TYPE":"U","NORAD_CAT_ID":46602,"ELEMENT_SET_NO":999,"REV_AT_EPOCH":3806,"BSTAR":0,"MEAN_MOTION_DOT":-1.64e-6,"MEAN_MOTION_DDOT":0},{"OBJECT_NAME":"GAOFEN-13 01","OBJECT_ID":"2020-071A","EPOCH":"2026-03-02T23:14:10.453920","MEAN_MOTION":1.00275611,"ECCENTRICITY":0.0043121,"INCLINATION":0.2466,"RA_OF_ASC_NODE":85.771,"ARG_OF_PERICENTER":120.1114,"MEAN_ANOMALY":61.6085,"EPHEMERIS_TYPE":0,"CLASSIFICATION_TYPE":"U","NORAD_CAT_ID":46610,"ELEMENT_SET_NO":999,"REV_AT_EPOCH":1985,"BSTAR":0,"MEAN_MOTION_DOT":-3.79e-6,"MEAN_MOTION_DDOT":0},{"OBJECT_NAME":"ATLAS 5 CENTAUR DEB","OBJECT_ID":"2018-079CK","EPOCH":"2026-03-01T08:16:48.912384","MEAN_MOTION":1.7050474,"ECCENTRICITY":0.58510003,"INCLINATION":11.9572,"RA_OF_ASC_NODE":32.1181,"ARG_OF_PERICENTER":319.8261,"MEAN_ANOMALY":8.9252,"EPHEMERIS_TYPE":0,"CLASSIFICATION_TYPE":"U","NORAD_CAT_ID":46657,"ELEMENT_SET_NO":999,"REV_AT_EPOCH":3349,"BSTAR":0,"MEAN_MOTION_DOT":-2.39e-6,"MEAN_MOTION_DDOT":0},{"OBJECT_NAME":"ATLAS 5 CENTAUR DEB","OBJECT_ID":"2018-079DB","EPOCH":"2026-03-01T20:16:23.170368","MEAN_MOTION":1.71840848,"ECCENTRICITY":0.4807847,"INCLINATION":12.2983,"RA_OF_ASC_NODE":71.9539,"ARG_OF_PERICENTER":249.1511,"MEAN_ANOMALY":54.1446,"EPHEMERIS_TYPE":0,"CLASSIFICATION_TYPE":"U","NORAD_CAT_ID":46846,"ELEMENT_SET_NO":999,"REV_AT_EPOCH":3345,"BSTAR":0,"MEAN_MOTION_DOT":-1.52e-6,"MEAN_MOTION_DDOT":0},{"OBJECT_NAME":"ATLAS 5 CENTAUR DEB","OBJECT_ID":"2018-079DC","EPOCH":"2026-03-02T09:05:50.803008","MEAN_MOTION":1.77284923,"ECCENTRICITY":0.471083,"INCLINATION":13.457,"RA_OF_ASC_NODE":50.4685,"ARG_OF_PERICENTER":278.4587,"MEAN_ANOMALY":32.6487,"EPHEMERIS_TYPE":0,"CLASSIFICATION_TYPE":"U","NORAD_CAT_ID":46847,"ELEMENT_SET_NO":999,"REV_AT_EPOCH":3454,"BSTAR":0,"MEAN_MOTION_DOT":-1.59e-6,"MEAN_MOTION_DDOT":0},{"OBJECT_NAME":"ATLAS 5 CENTAUR DEB","OBJECT_ID":"2018-079DN","EPOCH":"2026-03-02T02:29:10.369536","MEAN_MOTION":1.69096112,"ECCENTRICITY":0.46461747,"INCLINATION":12.4251,"RA_OF_ASC_NODE":81.9598,"ARG_OF_PERICENTER":221.0725,"MEAN_ANOMALY":92.703,"EPHEMERIS_TYPE":0,"CLASSIFICATION_TYPE":"U","NORAD_CAT_ID":46857,"ELEMENT_SET_NO":999,"REV_AT_EPOCH":3291,"BSTAR":0,"MEAN_MOTION_DOT":-1.12e-6,"MEAN_MOTION_DDOT":0},{"OBJECT_NAME":"TIANTONG-1 2","OBJECT_ID":"2020-082A","EPOCH":"2026-03-03T00:58:37.941024","MEAN_MOTION":1.00274772,"ECCENTRICITY":0.0003509,"INCLINATION":0.9531,"RA_OF_ASC_NODE":314.7117,"ARG_OF_PERICENTER":21.7087,"MEAN_ANOMALY":324.0014,"EPHEMERIS_TYPE":0,"CLASSIFICATION_TYPE":"U","NORAD_CAT_ID":46916,"ELEMENT_SET_NO":999,"REV_AT_EPOCH":1958,"BSTAR":0,"MEAN_MOTION_DOT":-3.72e-6,"MEAN_MOTION_DDOT":0}]
