FREGAT R/B              
1 45609U 20031B   26059.80030294  .00000770  00000+0  00000+0 0  9990
2 45609  63.5211  77.5908 7129933 258.2144  20.7007  2.01377464 42477
BEIDOU-3 G3             
1 45807U 20040A   26061.97402785 -.00000369  00000+0  00000+0 0  9994
2 45807   2.1864  67.1119 0004228 315.1868 239.5484  1.00276035 21002
APSTAR-6D               
1 45863U 20045A   26061.89993141 -.00000334  00000+0  00000+0 0  9995
2 45863   0.0416 104.1810 0002453 341.7817 172.6983  1.00269590 20795
KOREASAT 116            
1 45920U 20048A   26061.96774322  .00000000  00000+0  00000+0 0  9997
2 45920   0.0204 155.5175 0001105 185.6351 284.1969  1.00270318 20578
EXPRESS 103             
1 45985U 20053A   26062.03508354 -.00000297  00000+0  00000+0 0  9992
2 45985   0.0351 290.3437 0000904 355.5788 343.9949  1.00273535 20586
EXPRESS 80              
1 45986U 20053B   26061.33292921 -.00000154  00000+0  00000+0 0  9997
2 45986   0.0383 266.3297 0002221  21.0430  72.5659  1.00278276 20571
BREEZE-M R/B            
1 45987U 20053C   26062.04912068 -.00000247  00000+0  00000+0 0  9991
2 45987   7.2474  80.1405 4350453  74.0640 329.0339  1.03580823 21149
BSAT-4B                 
1 46112U 20056A   26061.99034564 -.00000366  00000+0  00000+0 0  9996
2 46112   0.0375 203.5979 0001310 239.4094 184.0959  1.00273318 20320
MEV-2                   
1 46113U 20056B   26061.87315514 -.00000028  00000+0  00000+0 0  9996
2 46113   0.0151 123.0430 0001042 253.4183  97.4995  1.00270496 79491
GALAXY 30 (G-30)        
1 46114U 20056C   26062.15947694  .00000021  00000+0  00000+0 0  9991
2 46114   0.0168 121.9575 0002205 218.1627 113.1970  1.00272235 20229
ATLAS 5 CENTAUR DEB     
1 46602U 18079CA  26061.07349990 -.00000164  00000+0  00000+0 0  9999
2 46602  13.3918  47.9997 4683641 284.8624  29.1851  1.79057448 38064
GAOFEN-13 01            
1 46610U 20071A   26061.96817655 -.00000379  00000+0  00000+0 0  9997
2 46610   0.2466  85.7710 0043121 120.1114  61.6085  1.00275611 19858
ATLAS 5 CENTAUR DEB     
1 46657U 18079CK  26060.34501056 -.00000239  00000+0  00000+0 0  9994
2 46657  11.9572  32.1181 5851000 319.8261   8.9252  1.70504740 33493
ATLAS 5 CENTAUR DEB     
1 46846U 18079DB  26060.84471262 -.00000152  00000+0  00000+0 0  9998
2 46846  12.2983  71.9539 4807847 249.1511  54.1446  1.71840848 33450
ATLAS 5 CENTAUR DEB     
1 46847U 18079DC  26061.37906022 -.00000159  00000+0  00000+0 0  9992
2 46847  13.4570  50.4685 4710830 278.4587  32.6487  1.77284923 34542
ATLAS 5 CENTAUR DEB     
1 46857U 18079DN  26061.10359224 -.00000112  00000+0  00000+0 0  9999
2 46857  12.4251  81.9598 4646174 221.0725  92.7030  1.69096112 32919
TIANTONG-1 2            
1 46916U 20082A   26062.04071691 -.00000372  00000+0  00000+0 0  9993
2 46916   0.9531 314.7117 0003509  21.7087 324.0014  1.00274772 19589
